{
    "links": {
        "self": "http://www.neowsapp.com/rest/v1/neo/3610032?api_key=iIulBulltgU6a56xZRHN4H3l9WmuAYTsLGpBGhQ2"
    },
    "id": "3610032",
    "neo_reference_id": "3610032",
    "name": "(2012 TJ53)",
    "designation": "2012 TJ53",
    "nasa_jpl_url": "http://ssd.jpl.nasa.gov/sbdb.cgi?sstr=3610032",
    "absolute_magnitude_h": 26.3,
    "estimated_diameter": {
        "kilometers": {
            "estimated_diameter_min": 0.0146067964,
            "estimated_diameter_max": 0.0326617897
        },
        "meters": {
            "estimated_diameter_min": 14.6067964271,
            "estimated_diameter_max": 32.6617897446
        },
        "miles": {
            "estimated_diameter_min": 0.0090762397,
            "estimated_diameter_max": 0.020295089
        },
        "feet": {
            "estimated_diameter_min": 47.92256199,
            "estimated_diameter_max": 107.1581062656
        }
    },
    "is_potentially_hazardous_asteroid": false,
    "close_approach_data": [
        {
            "close_approach_date": "2012-10-06",
            "close_approach_date_full": "2012-Oct-06 20:10",
            "epoch_date_close_approach": 1349554200000,
            "relative_velocity": {
                "kilometers_per_second": "13.9994238545",
                "kilometers_per_hour": "50397.9258762572",
                "miles_per_hour": "31315.3112201666"
            },
            "miss_distance": {
                "astronomical": "0.0079413715",
                "lunar": "3.0891935135",
                "kilometers": "1188012.261278705",
                "miles": "738196.588527929"
            },
            "orbiting_body": "Earth"
        },
        {
            "close_approach_date": "2012-10-06",
            "close_approach_date_full": "2012-Oct-06 23:56",
            "epoch_date_close_approach": 1349567760000,
            "relative_velocity": {
                "kilometers_per_second": "14.8370399951",
                "kilometers_per_hour": "53413.3439823978",
                "miles_per_hour": "33188.9747650627"
            },
            "miss_distance": {
                "astronomical": "0.0094046922",
                "lunar": "3.6584252658",
                "kilometers": "1406921.921125614",
                "miles": "874220.7436329132"
            },
            "orbiting_body": "Moon"
        }
    ],
    "orbital_data": {
        "orbit_id": "4",
        "orbit_determination_date": "2017-04-06 08:48:42",
        "first_observation_date": "2012-10-09",
        "last_observation_date": "2012-10-10",
        "data_arc_in_days": 1,
        "observations_used": 12,
        "orbit_uncertainty": "9",
        "minimum_orbit_intersection": ".00646537",
        "jupiter_tisserand_invariant": "3.658",
        "epoch_osculation": "2456210.5",
        "eccentricity": ".5761228649787654",
        "semi_major_axis": "1.959600555316615",
        "inclination": "1.676310988106613",
        "ascending_node_longitude": "180.5967936146197",
        "orbital_period": "1001.958554773585",
        "perihelion_distance": ".8306298691736271",
        "perihelion_argument": "135.3472328475039",
        "aphelion_distance": "3.088571241459603",
        "perihelion_time": "2456167.208880786777",
        "mean_anomaly": "15.55433889207326",
        "mean_motion": ".3592962985194035",
        "equinox": "J2000",
        "orbit_class": {
            "orbit_class_type": "APO",
            "orbit_class_description": "Near-Earth asteroid orbits which cross the Earth’s orbit similar to that of 1862 Apollo",
            "orbit_class_range": "a (semi-major axis) > 1.0 AU; q (perihelion) < 1.017 AU"
        }
    },
    "is_sentry_object": false
}